*******************************************************************************
Ephemeris / WWW_USER Mon Jul 15 19:16:36 2024 Pasadena, USA      / Horizons    
*******************************************************************************
Target body name: (2018 WV1)                      {source: JPL#17}
Center body name: Earth (399)                     {source: DE441}
Center-site name: Gemini South Obs., Cerro Pachon
*******************************************************************************
Start time      : A.D. 2018-Oct-16 23:02:00.0000 UT      
Stop  time      : A.D. 2018-Oct-17 09:54:00.0000 UT      
Step-size       : 1 minutes
*******************************************************************************
Target pole/equ : undefined
Target radii    : undefined                                                    
Center geodetic : 289.2634, -30.2406227, 2.71233  {E-lon(deg),Lat(deg),Alt(km)}
Center cylindric: 289.2634,5517.21435,-3194.81213 {E-lon(deg),Dxy(km),Dz(km)}
Center pole/equ : ITRF93                          {East-longitude positive}
Center radii    : 6378.137, 6378.137, 6356.752 km {Equator_a, b, pole_c}       
Target primary  : Sun
Vis. interferer : MOON (R_eq= 1737.400) km        {source: DE441}
Rel. light bend : Sun                             {source: DE441}
Rel. lght bnd GM: 1.3271E+11 km^3/s^2                                          
Small-body perts: Yes                             {source: SB441-N16}
Atmos refraction: NO (AIRLESS)
RA format       : HMS
Time format     : CAL 
Calendar mode   : Mixed Julian/Gregorian
RTS-only print  : NO       
EOP file        : eop.240715.p241008                                           
EOP coverage    : DATA-BASED 1962-JAN-20 TO 2024-JUL-15. PREDICTS-> 2024-OCT-07
Units conversion: 1 au= 149597870.700 km, c= 299792.458 km/s, 1 day= 86400.0 s 
Table cut-offs 1: Elevation (-90.0deg=NO ),Airmass (>38.000=NO), Daylight (YES)
Table cut-offs 2: Solar elongation (  0.0,180.0=NO ),Local Hour Angle( 0.0=NO )
Table cut-offs 3: RA/DEC angular rate (     0.0=NO )                           
*******************************************************************************
Initial IAU76/J2000 heliocentric ecliptic osculating elements (au, days, deg.):
  EPOCH=  2458458.5 ! 2018-Dec-06.00 (TDB)         Residual RMS= .12928        
   EC= .06869100257422787  QR= .9715505345748198   TP= 2458416.866413563       
   OM= 248.5061090469913   W=  141.3742304527303   IN= 1.905403987972275       
  Equivalent ICRF heliocentric cartesian coordinates (au, au/d):
   X= 2.787163119783287E-01  Y= 8.719775267121872E-01  Z= 3.748421051204766E-01
  VX=-1.676682657337402E-02 VY= 5.516972965834891E-03 VZ= 1.749720915605096E-03
Asteroid physical parameters (km, seconds, rotational period in hours):        
   GM= n.a.                RAD= n.a.               ROTPER= n.a.                
   H= 30.3                 G= .150                 B-V= n.a.                   
                           ALBEDO= n.a.            STYP= n.a.                  
*******************************************************************************
 Date__(UT)__HR:MN     R.A._________(ICRF)_________DEC
******************************************************
$$SOE
 2018-Oct-17 09:17 N   01 54 29.193774 +20 50 29.32096
 2018-Oct-17 09:18 N   01 54 29.163209 +20 50 29.36350
 2018-Oct-17 09:19 N   01 54 29.132816 +20 50 29.40565
 2018-Oct-17 09:20 N   01 54 29.102596 +20 50 29.44740
 2018-Oct-17 09:21 N   01 54 29.072548 +20 50 29.48875
 2018-Oct-17 09:22 N   01 54 29.042674 +20 50 29.52970
 2018-Oct-17 09:23 N   01 54 29.012973 +20 50 29.57027
 2018-Oct-17 09:24 N   01 54 28.983446 +20 50 29.61046
 2018-Oct-17 09:25 N   01 54 28.954094 +20 50 29.65026
 2018-Oct-17 09:26 N   01 54 28.924915 +20 50 29.68969
 2018-Oct-17 09:27 N   01 54 28.895912 +20 50 29.72874
 2018-Oct-17 09:28 N   01 54 28.867084 +20 50 29.76742
 2018-Oct-17 09:29 N   01 54 28.838432 +20 50 29.80574
 2018-Oct-17 09:30 N   01 54 28.809955 +20 50 29.84370
 2018-Oct-17 09:31 N   01 54 28.781654 +20 50 29.88130
 2018-Oct-17 09:32 N   01 54 28.753530 +20 50 29.91855
 2018-Oct-17 09:33 N   01 54 28.725583 +20 50 29.95544
 2018-Oct-17 09:34 N   01 54 28.697813 +20 50 29.99199
 2018-Oct-17 09:35 N   01 54 28.670220 +20 50 30.02820
 2018-Oct-17 09:36 N   01 54 28.642805 +20 50 30.06407
 2018-Oct-17 09:37 N   01 54 28.615568 +20 50 30.09960
 2018-Oct-17 09:38 C   01 54 28.588509 +20 50 30.13481
 2018-Oct-17 09:39 C   01 54 28.561628 +20 50 30.16969
 2018-Oct-17 09:40 C   01 54 28.534927 +20 50 30.20424
 2018-Oct-17 09:41 C   01 54 28.508404 +20 50 30.23848
 2018-Oct-17 09:42 C   01 54 28.482061 +20 50 30.27241
 2018-Oct-17 09:43 C   01 54 28.455898 +20 50 30.30602
 2018-Oct-17 09:44 C   01 54 28.429914 +20 50 30.33932
 2018-Oct-17 09:45 C   01 54 28.404111 +20 50 30.37233
 2018-Oct-17 09:46 C   01 54 28.378488 +20 50 30.40503
 2018-Oct-17 09:47 C   01 54 28.353046 +20 50 30.43744
 2018-Oct-17 09:48 C   01 54 28.327785 +20 50 30.46956
 2018-Oct-17 09:49 C   01 54 28.302705 +20 50 30.50139
 2018-Oct-17 09:50 C   01 54 28.277806 +20 50 30.53294
 2018-Oct-17 09:51 C   01 54 28.253089 +20 50 30.56422
 2018-Oct-17 09:52 C   01 54 28.228554 +20 50 30.59521
 2018-Oct-17 09:53 C   01 54 28.204202 +20 50 30.62594
 2018-Oct-17 09:54 C   01 54 28.180031 +20 50 30.65640
